[{"OBJECT_NAME":"STARLINK-36267","OBJECT_ID":"2025-304G","EPOCH":"2026-03-09T16:36:04.017024","MEAN_MOTION":14.98334276,"ECCENTRICITY":0.00031896,"INCLINATION":70.0015,"RA_OF_ASC_NODE":174.5061,"ARG_OF_PERICENTER":268.4866,"MEAN_ANOMALY":91.5927,"EPHEMERIS_TYPE":0,"CLASSIFICATION_TYPE":"U","NORAD_CAT_ID":67198,"ELEMENT_SET_NO":999,"REV_AT_EPOCH":1385,"BSTAR":0.00069265683,"MEAN_MOTION_DOT":8.182e-5,"MEAN_MOTION_DDOT":0},{"OBJECT_NAME":"UNKNOWN","OBJECT_ID":"","EPOCH":"2026-03-03T02:04:07.928832","MEAN_MOTION":13.15432327,"ECCENTRICITY":0.0843493,"INCLINATION":65.7062,"RA_OF_ASC_NODE":230.7222,"ARG_OF_PERICENTER":79.7316,"MEAN_ANOMALY":289.7632,"EPHEMERIS_TYPE":0,"CLASSIFICATION_TYPE":"U","NORAD_CAT_ID":81921,"ELEMENT_SET_NO":999,"REV_AT_EPOCH":3635,"BSTAR":0.00080283,"MEAN_MOTION_DOT":1.918e-5,"MEAN_MOTION_DDOT":0}]
